[{"OBJECT_NAME":"EUTELSAT HOTBIRD 13C","OBJECT_ID":"2008-065A","EPOCH":"2026-04-04T05:42:05.189184","MEAN_MOTION":1.00273746,"ECCENTRICITY":0.00041371,"INCLINATION":2.7607,"RA_OF_ASC_NODE":80.0451,"ARG_OF_PERICENTER":302.0183,"MEAN_ANOMALY":205.7254,"EPHEMERIS_TYPE":0,"CLASSIFICATION_TYPE":"U","NORAD_CAT_ID":33459,"ELEMENT_SET_NO":999,"REV_AT_EPOCH":4660,"BSTAR":0,"MEAN_MOTION_DOT":-2.82e-6,"MEAN_MOTION_DDOT":0},{"OBJECT_NAME":"EXPRESS-AM44","OBJECT_ID":"2009-007A","EPOCH":"2026-04-04T04:10:36.463296","MEAN_MOTION":1.00272263,"ECCENTRICITY":0.00043293,"INCLINATION":3.2741,"RA_OF_ASC_NODE":79.2855,"ARG_OF_PERICENTER":294.6264,"MEAN_ANOMALY":230.2327,"EPHEMERIS_TYPE":0,"CLASSIFICATION_TYPE":"U","NORAD_CAT_ID":33595,"ELEMENT_SET_NO":999,"REV_AT_EPOCH":5154,"BSTAR":0,"MEAN_MOTION_DOT":-8.8e-7,"MEAN_MOTION_DDOT":0},{"OBJECT_NAME":"NSS-9","OBJECT_ID":"2009-008A","EPOCH":"2026-04-04T04:35:38.555808","MEAN_MOTION":1.00272171,"ECCENTRICITY":0.00022349,"INCLINATION":1.0706,"RA_OF_ASC_NODE":83.3077,"ARG_OF_PERICENTER":282.9627,"MEAN_ANOMALY":78.2066,"EPHEMERIS_TYPE":0,"CLASSIFICATION_TYPE":"U","NORAD_CAT_ID":33749,"ELEMENT_SET_NO":999,"REV_AT_EPOCH":6277,"BSTAR":0,"MEAN_MOTION_DOT":7.2e-7,"MEAN_MOTION_DDOT":0},{"OBJECT_NAME":"TELSTAR 11N","OBJECT_ID":"2009-009A","EPOCH":"2026-04-04T05:19:38.595936","MEAN_MOTION":1.00268672,"ECCENTRICITY":0.00025588,"INCLINATION":0.0173,"RA_OF_ASC_NODE":195.1482,"ARG_OF_PERICENTER":172.5643,"MEAN_ANOMALY":227.191,"EPHEMERIS_TYPE":0,"CLASSIFICATION_TYPE":"U","NORAD_CAT_ID":34111,"ELEMENT_SET_NO":999,"REV_AT_EPOCH":4550,"BSTAR":0,"MEAN_MOTION_DOT":0,"MEAN_MOTION_DDOT":0},{"OBJECT_NAME":"WGS F2 (USA 204)","OBJECT_ID":"2009-017A","EPOCH":"2026-04-04T04:30:12.083904","MEAN_MOTION":1.00270496,"ECCENTRICITY":2.666e-5,"INCLINATION":0.0145,"RA_OF_ASC_NODE":210.9279,"ARG_OF_PERICENTER":239.314,"MEAN_ANOMALY":227.3115,"EPHEMERIS_TYPE":0,"CLASSIFICATION_TYPE":"U","NORAD_CAT_ID":34713,"ELEMENT_SET_NO":999,"REV_AT_EPOCH":4487,"BSTAR":0,"MEAN_MOTION_DOT":0,"MEAN_MOTION_DDOT":0},{"OBJECT_NAME":"SES-7 (PROTOSTAR 2)","OBJECT_ID":"2009-027A","EPOCH":"2026-04-03T23:36:40.237920","MEAN_MOTION":1.00272821,"ECCENTRICITY":0.00020322,"INCLINATION":0.089,"RA_OF_ASC_NODE":78.2732,"ARG_OF_PERICENTER":241.555,"MEAN_ANOMALY":334.8897,"EPHEMERIS_TYPE":0,"CLASSIFICATION_TYPE":"U","NORAD_CAT_ID":34941,"ELEMENT_SET_NO":999,"REV_AT_EPOCH":6188,"BSTAR":0,"MEAN_MOTION_DOT":-3.46e-6,"MEAN_MOTION_DDOT":0},{"OBJECT_NAME":"MEASAT-3A","OBJECT_ID":"2009-032A","EPOCH":"2026-04-04T05:18:10.029888","MEAN_MOTION":1.00272305,"ECCENTRICITY":0.00031924,"INCLINATION":0.0505,"RA_OF_ASC_NODE":35.0588,"ARG_OF_PERICENTER":343.0562,"MEAN_ANOMALY":53.9577,"EPHEMERIS_TYPE":0,"CLASSIFICATION_TYPE":"U","NORAD_CAT_ID":35362,"ELEMENT_SET_NO":999,"REV_AT_EPOCH":728,"BSTAR":0,"MEAN_MOTION_DOT":-1.11e-6,"MEAN_MOTION_DDOT":0},{"OBJECT_NAME":"GOES 14","OBJECT_ID":"2009-033A","EPOCH":"2026-04-04T04:35:38.555808","MEAN_MOTION":1.00111592,"ECCENTRICITY":0.00018234,"INCLINATION":1.4992,"RA_OF_ASC_NODE":83.9394,"ARG_OF_PERICENTER":295.6803,"MEAN_ANOMALY":65.207,"EPHEMERIS_TYPE":0,"CLASSIFICATION_TYPE":"U","NORAD_CAT_ID":35491,"ELEMENT_SET_NO":999,"REV_AT_EPOCH":584,"BSTAR":0,"MEAN_MOTION_DOT":4.9e-7,"MEAN_MOTION_DDOT":0},{"OBJECT_NAME":"FM-5","OBJECT_ID":"2009-034A","EPOCH":"2026-04-03T22:40:46.238304","MEAN_MOTION":1.0027303,"ECCENTRICITY":1.752e-5,"INCLINATION":0.0201,"RA_OF_ASC_NODE":254.8145,"ARG_OF_PERICENTER":18.3757,"MEAN_ANOMALY":173.109,"EPHEMERIS_TYPE":0,"CLASSIFICATION_TYPE":"U","NORAD_CAT_ID":35493,"ELEMENT_SET_NO":999,"REV_AT_EPOCH":4589,"BSTAR":0,"MEAN_MOTION_DOT":-2.02e-6,"MEAN_MOTION_DDOT":0},{"OBJECT_NAME":"TERRESTAR-1","OBJECT_ID":"2009-035A","EPOCH":"2026-04-04T12:30:32.829120","MEAN_MOTION":1.0027342,"ECCENTRICITY":0.00028992,"INCLINATION":5.1234,"RA_OF_ASC_NODE":48.8032,"ARG_OF_PERICENTER":324.7404,"MEAN_ANOMALY":255.9471,"EPHEMERIS_TYPE":0,"CLASSIFICATION_TYPE":"U","NORAD_CAT_ID":35496,"ELEMENT_SET_NO":999,"REV_AT_EPOCH":6139,"BSTAR":0,"MEAN_MOTION_DOT":-5.5e-7,"MEAN_MOTION_DDOT":0},{"OBJECT_NAME":"ASIASAT 5","OBJECT_ID":"2009-042A","EPOCH":"2026-04-04T01:17:08.102400","MEAN_MOTION":1.00271213,"ECCENTRICITY":0.0001699,"INCLINATION":0.0123,"RA_OF_ASC_NODE":206.9627,"ARG_OF_PERICENTER":161.1062,"MEAN_ANOMALY":304.1041,"EPHEMERIS_TYPE":0,"CLASSIFICATION_TYPE":"U","NORAD_CAT_ID":35696,"ELEMENT_SET_NO":999,"REV_AT_EPOCH":6096,"BSTAR":0,"MEAN_MOTION_DOT":-3.08e-6,"MEAN_MOTION_DDOT":0},{"OBJECT_NAME":"JCSAT-12 (JCSAT-RA)","OBJECT_ID":"2009-044A","EPOCH":"2026-04-04T06:08:38.620320","MEAN_MOTION":1.00268494,"ECCENTRICITY":8.73e-5,"INCLINATION":0.0132,"RA_OF_ASC_NODE":202.7706,"ARG_OF_PERICENTER":160.2178,"MEAN_ANOMALY":53.7868,"EPHEMERIS_TYPE":0,"CLASSIFICATION_TYPE":"U","NORAD_CAT_ID":35755,"ELEMENT_SET_NO":999,"REV_AT_EPOCH":6086,"BSTAR":0,"MEAN_MOTION_DOT":0,"MEAN_MOTION_DDOT":0},{"OBJECT_NAME":"OPTUS D3","OBJECT_ID":"2009-044B","EPOCH":"2026-04-03T20:24:56.079648","MEAN_MOTION":1.00272629,"ECCENTRICITY":0.00032172,"INCLINATION":0.8654,"RA_OF_ASC_NODE":270.0015,"ARG_OF_PERICENTER":101.7046,"MEAN_ANOMALY":282.8172,"EPHEMERIS_TYPE":0,"CLASSIFICATION_TYPE":"U","NORAD_CAT_ID":35756,"ELEMENT_SET_NO":999,"REV_AT_EPOCH":6082,"BSTAR":0,"MEAN_MOTION_DOT":-1.48e-6,"MEAN_MOTION_DDOT":0},{"OBJECT_NAME":"NIMIQ 5","OBJECT_ID":"2009-050A","EPOCH":"2026-04-04T05:35:43.299456","MEAN_MOTION":1.00272565,"ECCENTRICITY":0.00029201,"INCLINATION":0.0445,"RA_OF_ASC_NODE":83.1771,"ARG_OF_PERICENTER":295.0337,"MEAN_ANOMALY":185.5675,"EPHEMERIS_TYPE":0,"CLASSIFICATION_TYPE":"U","NORAD_CAT_ID":35873,"ELEMENT_SET_NO":999,"REV_AT_EPOCH":6060,"BSTAR":0,"MEAN_MOTION_DOT":-2.57e-6,"MEAN_MOTION_DDOT":0},{"OBJECT_NAME":"AMAZONAS 2","OBJECT_ID":"2009-054A","EPOCH":"2026-04-04T05:39:05.476320","MEAN_MOTION":1.00271963,"ECCENTRICITY":0.00035267,"INCLINATION":1.6231,"RA_OF_ASC_NODE":83.9836,"ARG_OF_PERICENTER":292.3487,"MEAN_ANOMALY":200.2072,"EPHEMERIS_TYPE":0,"CLASSIFICATION_TYPE":"U","NORAD_CAT_ID":35942,"ELEMENT_SET_NO":999,"REV_AT_EPOCH":6044,"BSTAR":0,"MEAN_MOTION_DOT":-2.82e-6,"MEAN_MOTION_DDOT":0},{"OBJECT_NAME":"COMSATBW-1","OBJECT_ID":"2009-054B","EPOCH":"2026-04-04T04:31:41.940768","MEAN_MOTION":1.00271952,"ECCENTRICITY":0.00038445,"INCLINATION":0.0615,"RA_OF_ASC_NODE":80.4032,"ARG_OF_PERICENTER":309.2344,"MEAN_ANOMALY":293.7853,"EPHEMERIS_TYPE":0,"CLASSIFICATION_TYPE":"U","NORAD_CAT_ID":35943,"ELEMENT_SET_NO":999,"REV_AT_EPOCH":6056,"BSTAR":0,"MEAN_MOTION_DOT":2.4e-7,"MEAN_MOTION_DDOT":0},{"OBJECT_NAME":"NSS-12","OBJECT_ID":"2009-058A","EPOCH":"2026-04-04T04:30:04.595616","MEAN_MOTION":1.00271262,"ECCENTRICITY":0.0005061,"INCLINATION":0.073,"RA_OF_ASC_NODE":61.1201,"ARG_OF_PERICENTER":297.356,"MEAN_ANOMALY":318.548,"EPHEMERIS_TYPE":0,"CLASSIFICATION_TYPE":"U","NORAD_CAT_ID":36032,"ELEMENT_SET_NO":999,"REV_AT_EPOCH":6017,"BSTAR":0,"MEAN_MOTION_DOT":7.1e-7,"MEAN_MOTION_DDOT":0}]
