EUTELSAT HOTBIRD 13C    
1 33459U 08065A   26094.23756006 -.00000282  00000+0  00000+0 0  9994
2 33459   2.7607  80.0451 0004137 302.0183 205.7254  1.00273746 46609
EXPRESS-AM44            
1 33595U 09007A   26094.17403314 -.00000088  00000+0  00000+0 0  9990
2 33595   3.2741  79.2855 0004329 294.6264 230.2327  1.00272263 51548
NSS-9                   
1 33749U 09008A   26094.19141847  .00000072  00000+0  00000+0 0  9996
2 33749   1.0706  83.3077 0002234 282.9627  78.2066  1.00272171 62779
TELSTAR 11N             
1 34111U 09009A   26094.22197449  .00000000  00000+0  00000+0 0  9995
2 34111   0.0173 195.1482 0002558 172.5643 227.1910  1.00268672 45509
WGS F2 (USA 204)        
1 34713U 09017A   26094.18763986  .00000000  00000+0  00000+0 0  9992
2 34713   0.0145 210.9279 0000266 239.3140 227.3115  1.00270496 44879
SES-7 (PROTOSTAR 2)     
1 34941U 09027A   26093.98379905 -.00000346  00000+0  00000+0 0  9991
2 34941   0.0890  78.2732 0002032 241.5550 334.8897  1.00272821 61886
MEASAT-3A               
1 35362U 09032A   26094.22094942 -.00000111  00000+0  00000+0 0  9998
2 35362   0.0505  35.0588 0003192 343.0562  53.9577  1.00272305  7281
GOES 14                 
1 35491U 09033A   26094.19141847  .00000049  00000+0  00000+0 0  9994
2 35491   1.4992  83.9394 0001823 295.6803  65.2070  1.00111592  5849
FM-5                    
1 35493U 09034A   26093.94497961 -.00000202  00000+0  00000+0 0  9992
2 35493   0.0201 254.8145 0000175  18.3757 173.1090  1.00273030 45895
TERRESTAR-1             
1 35496U 09035A   26094.52121330 -.00000055  00000+0  00000+0 0  9991
2 35496   5.1234  48.8032 0002899 324.7404 255.9471  1.00273420 61392
ASIASAT 5               
1 35696U 09042A   26094.05356600 -.00000308  00000+0  00000+0 0  9990
2 35696   0.0123 206.9627 0001699 161.1062 304.1041  1.00271213 60962
JCSAT-12 (JCSAT-RA)     
1 35755U 09044A   26094.25600255  .00000000  00000+0  00000+0 0  9996
2 35755   0.0132 202.7706 0000873 160.2178  53.7868  1.00268494 60861
OPTUS D3                
1 35756U 09044B   26093.85064907 -.00000148  00000+0  00000+0 0  9994
2 35756   0.8654 270.0015 0003217 101.7046 282.8172  1.00272629 60823
NIMIQ 5                 
1 35873U 09050A   26094.23314004 -.00000257  00000+0  00000+0 0  9991
2 35873   0.0445  83.1771 0002920 295.0337 185.5675  1.00272565 60607
AMAZONAS 2              
1 35942U 09054A   26094.23548005 -.00000282  00000+0  00000+0 0  9990
2 35942   1.6231  83.9836 0003526 292.3487 200.2072  1.00271963 60442
COMSATBW-1              
1 35943U 09054B   26094.18867987  .00000024  00000+0  00000+0 0  9991
2 35943   0.0615  80.4032 0003844 309.2344 293.7853  1.00271952 60560
NSS-12                  
1 36032U 09058A   26094.18755319  .00000071  00000+0  00000+0 0  9992
2 36032   0.0730  61.1201 0005061 297.3560 318.5480  1.00271262 60175
